license_num,address,unit,city,province,postal_code
5926698,10 Eastern Avenue,,Acton,ON,L7J0A5
6054808,95 Bayly Street West,Suite 300,Ajax,ON,L1S7K8
2273702,95 Bayly Street West,Suite 101,Ajax,ON,L1S7K8
5461818,601 Westney Road South,,Ajax,ON,L1S4N7
2108881,601 Harwood Avenue South,Suite 201,Ajax,ON,L1S2J5
6991291,300 Harwood Avenue South,Harwood Mall,Ajax,ON,L1S2J1
6521323,601 Harwood Avenue South,Suite 107,Ajax,ON,L1S2J5
1055313,300 Rossland Road East,Suite 102,Ajax,ON,L1Z0M1
5443988,95 Bayly Street West,Suite 200,Ajax,ON,L1S7K8
9401190,15 Westney Road North,Unit 2,Ajax,ON,L1T1P4
3876219,117 Young Street,Units 21-24,Alliston,ON,L9R0E9
2331095,433 Sandwich Street South,Suite 104,Amherstburg,ON,N9V3K8
301510,1144 Wilson Street West,Suite 104,Ancaster,ON,L9G3K9
1813587,21589 Richmond Street,,Arva,ON,N0M1C0
7541489,15017 Yonge Street,Suite 101,Aurora,ON,L4G1M5
7458845,125 Pederson Drive,"Units 3, 4 and 5",Aurora,ON,L4G0E3
7476710,418 Talbot Street West,Unit 6,Aylmer,ON,N5H1K9
5739908,190 Cundles Road East,Suite 202,Barrie,ON,L4M4S5
8193853,60 Bell Farm Road,,Barrie,ON,L4M5G6
9652595,630 Huronia Road,Unit 5,Barrie,ON,L4N0W5
3630988,190 Cundles Road East,Suite 100C,Barrie,ON,L4M4S5
9478578,11 Lakeside Terrace,LL01,Barrie,ON,L4M0H9
6739562,480 Huronia Road,Suite 101,Barrie,ON,L4N6M2
1309436,11 Lakeside Terrace,LL01,Barrie,ON,L4M0H9
3121417,11 Lakeside Terrace,LL01,Barrie,ON,L4M0H9
1255307,480 Huronia Road,Suite 101,Barrie,ON,L4N6M2
604590,5 Quarry Ridge Road,Unit 204,Barrie,ON,L4M7G1
6099661,4438 Ontario Street,Suite 101,Beamsville,ON,L0R1B5
8077929,468 Main Street East,Basement,Beaverton,ON,L0K1A0
735119,34 Main Street West,,Beeton,ON,L0G1A0
203501,1679 Essex County Road 22,Unit 1,Belle River,ON,N8L0J8
5962650,210 Dundas Street East,Suite 301,Belleville,ON,K8N5G8
3987671,150 Sidney Street,Suite 106B,Belleville,ON,K8P5E2
5981712,121 Dundas Street East,Unit 104,Belleville,ON,K8N1C3
10105,470 Dundas Street East,Bayview Mall,Belleville,ON,K8N1G1
3363065,123 Millennium Parkway,RR5,Belleville,ON,K8N4Z5
492134,150 Sidney Street,Suite 2B,Belleville,ON,K8P5E2
5655971,170 McEwan Drive East,Suite 104,Bolton,ON,L7E4C8
1192028,222 King Street East,"Suite 2101, South Wing",Bowmanville,ON,L1C1P6
1330087,222 King Street East,Suite 1101,Bowmanville,ON,L1C1P6
1816720,459 Holland Street West,Unit 4,Bradford,ON,L3Z0C1
9364847,18 Kensington Road,Suite 200 and 206,Brampton,ON,L6T4S5
3406812,2250 Bovaird Drive East,Suite 308,Brampton,ON,L6R0W3
8179104,40 Finchgate Boulevard,Suites 216 & 218,Brampton,ON,L6T3J1
8093940,11755 Bramalea Road,Unit 2,Brampton,ON,L6R3S9
6218000,164 Queen Street East,Suite 110,Brampton,ON,L6V1B4
5935623,9545 Mississauga Road,"Units E1, E2 and E3",Brampton,ON,L6X0B5
3043514,10 Cottrelle Boulevard,Unit 202,Brampton,ON,L6S0E2
5505751,157 Queen Street East,Basement,Brampton,ON,L6W3X4
4076856,40 Finchgate Boulevard,Suite 320,Brampton,ON,L6T3J1
2523136,60 Gillingham Drive,"4th Floor, Unit 401, Room 3",Brampton,ON,L6X0Z9
3452164,4525 Ebenezer Road,Unit 2,Brampton,ON,L6P2K8
1391236,10425 Kennedy Road North,Suite 104,Brampton,ON,L6Z0A4
6158120,470 Chrysler Drive,Suite 28,Brampton,ON,L6S0C1
5006169,31 Centre Street South,,Brampton,ON,L6W2X7
9491544,480 Chrysler Drive,Unit 34,Brampton,ON,L6S0C1
9966412,2 Dewside Drive,Unit 206,Brampton,ON,L6R3Y5
2122342,645 Remembrance Road,,Brampton,ON,L7A5H2
6506715,100 Pertosa Drive,Suite 207,Brampton,ON,L6X0H9
6306400,36 Vodden Street East,Suite 104,Brampton,ON,L6V4H4
5758151,7700 Hurontario Street,Suite 605,Brampton,ON,L6Y4M3
2681532,400 Queen Street West,"Unit 9, 2nd Floor",Brampton,ON,L6X1B3
157522,2130 North Park Drive,Unit 225,Brampton,ON,L6S0C9
6478174,7900 Hurontario Street,Suite 401,Brampton,ON,L6Y0P6
1046680,3938 Cottrelle Boulevard,,Brampton,ON,L6P2R1
5056976,260 Lynden Road,Unit 2,Brantford,ON,N3R0B9
256401,221 Brant Avenue,,Brantford,ON,N3T3J3
5523772,353 St. Paul Avenue,,Brantford,ON,N3R4N3
7300881,40 Shellington Place,Suite 102,Brantford,ON,N3S0C5
896467,40 Shellington Place,Suite 102,Brantford,ON,N3S0C5
9175675,270 King George Road,,Brantford,ON,N3R5L5
6601306,525 Park Road North,Suite 006,Brantford,ON,N3R7K8
5149419,274 Lynden Road,Suite C,Brantford,ON,N3R0B9
1464613,274 Lynden Road,Suite B,Brantford,ON,N3T0B9
3276351,3155 Harvester Road,Suite 401,Burlington,ON,L7N3V2
9842694,3532 Commerce Court,,Burlington,ON,L7N3L7
309136,1455 Lakeshore Road,Unit G14A,Burlington,ON,L7S2J1
8754641,3155 Harvester Road,Suite 106,Burlington,ON,L7N3V2
423694,3210 Harvester Road,,Burlington,ON,L7N3T1
1421306,2951 Walker's Line,Suite 305,Burlington,ON,L7M4Y1
5409190,809 Brant Street,2nd Floor,Burlington,ON,L7R2J4
1023508,3155 Harvester Road,Suite 310,Burlington,ON,L7N3V2
8432546,3155 Harvester Road,Suite 310,Burlington,ON,L7N3V2
8621976,3155 Harvester Road,Suite 310,Burlington,ON,L7N3V2
8592398,3155 Harvester Road,Suite 310,Burlington,ON,L7N3V2
6449987,3155 Harvester Road,Suite 310,Burlington,ON,L7N3V2
4923987,3155 Harvester Road,Suite 310,Burlington,ON,L7N3V2
4097988,3155 Harvester Road,Suite 310,Burlington,ON,L7N3V2
1313367,3155 Harvester Road,Suite 310,Burlington,ON,L7N3V2
8045380,3155 Harvester Road,Suite 310,Burlington,ON,L7N3V2
8414031,760 Brant Street,Suites 2 & 3,Burlington,ON,L7R4B7
2675538,2951 Walkers Line,,Burlington,ON,L7M4Y1
4152906,1960 Appleby Line,,Burlington,ON,L7L0B7
1754000,2200 Fairview Street,Suite 108,Burlington,ON,L7R4H9
1114314,19834 Airport Road,,Caledon,ON,L7K0A1
2026913,12560 Kennedy Road,,Caledon,ON,L7C4C4
3324016,19834 Airport Road,,Caledon,ON,L7K0A1
5601769,19834 Airport Road,,Caledon,ON,L7K0A1
2004864,12050 Airport Road,Unit 2,Caledon,ON,L7C2W1
1437712,15980 Airport Road,,Caledon East,ON,L7C1E8
7354767,55 Argyle Street North,,Caledonia,ON,N3W1B8
8077714,167 Hespeler Road,,Cambridge,ON,N1R3H7
5846492,614 Coronation Boulevard,Suite 103,Cambridge,ON,N1R3E8
2869975,350 Conestoga Boulevard,Unit B9,Cambridge,ON,N1R7L7
2103687,350 Conestoga Boulevard,Unit B9,Cambridge,ON,N1R7L7
3123625,1986 Cedar Creek Road,,Cambridge,ON,N1R5S5
7297831,33 Blair Road,,Cambridge,ON,N1S2H8
5512851,745 Coronation Boulevard,,Cambridge,ON,N1R0B6
5061413,30 Crawford Crescent,,Campbellville,ON,L0P1B0
7319242,22 Costello Drive,,Carleton Place,ON,K7C4P9
7057816,119 Langstaff Drive,,Carp,ON,K0A1L0
2671943,629 Principale Street,,Casselman,ON,K0A1M0
6929910,735 St. Clair Street,,Chatham,ON,N7L0E9
5095356,445 Grand Avenue West,,Chatham,ON,N7L1X4
4019989,857 Grand Avenue West,Suite 112,Chatham,ON,N7L4T1
6020097,17 Park Avenue East,,Chatham,ON,N7M3V3
1023856,60 Swayne Street,,Cobourg,ON,K9A1K5
3487302,900 Division Street,Unit 210,Cobourg,ON,K9A5V2
4208420,52 King Street West,,Cobourg,ON,K9A2L9
5642197,28 Huron Street,Suite 400,Collingwood,ON,L9Y1C4
5344492,9135 Keele Street,Unit A5,Concord,ON,L4K0J4
7792106,2180 Steeles Avenue West,Suite 221,Concord,ON,L4K2Z5
9651464,2640 Rutherford Road,Suite 102,Concord,ON,L4K0H3
5536975,820 McConnell Avenue,Suites 116 & 117,Cornwall,ON,K6H4M4
5230117,820 McConnell Avenue,Suites 116 & 117,Cornwall,ON,K6H4M4
7249105,127 Sydney Street,,Cornwall,ON,K6H3H1
7600385,1450 Highway #2,,Courtice,ON,L1E3C3
1013514,105 Main Street,,Delhi,ON,N4B2L8
3617984,1087 Camp Dorset Road,P.O. Box 306,Dorset,ON,P0A1E0
6683956,60 Hatt Street,Suite 201,Dundas,ON,L9H7T6
9067225,1450 O'Connor Drive,"Building 1, Unit 12",East York,ON,M4B2T8
659906,1832 County Road 2,,Elizabethtown,ON,K6V7G7
4999144,10 Church Street West,,Elmira,ON,N3B1M3
7341419,10 Church Street West,,Elmira,ON,N3B1M3
5556035,869 Notre Dame Street,Box 1110,Embrun,ON,K0A1W0
2142310,2 Thompson Crescent,Unit 3,Erin,ON,N0B1T0
919681,186 Talbot Street South,Suite 103,Essex,ON,N8M1B6
5820546,200 Ronson Drive,Suite 104,Etobicoke,ON,M9W5Z9
258207,56 Aberfoyle Crescent,Suite 100,Etobicoke,ON,M8X2W4
336467,115 Humber College Boulevard,Suite 719,Etobicoke,ON,M9V0A9
3058099,3101 Bloor Street West,Suite 401,Etobicoke,ON,M8X2W2
2160,968 Albion Road,,Etobicoke,ON,M9V1A7
6599764,106 Humber College Boulevard,Suite 202,Etobicoke,ON,M9V4E4
5254199,233 Evans Avenue,,Etobicoke,ON,M8Z1J6
6595963,245 Dixon Road,Suite 107,Etobicoke,ON,M9P2M4
5234768,3101 Bloor Street West,Suite 103,Etobicoke,ON,M8X2W2
4014432,2291 Kipling Avenue,Unit 121,Etobicoke,ON,M9W4L6
8033567,3101 Bloor Street West,Suite 401,Etobicoke,ON,M8X2W2
7259100,3170 Lake Shore Boulevard West,Suite 102,Etobicoke,ON,M8V3X8
9062513,190 Sherway Drive,Suite 413,Etobicoke,ON,M9C5N2
1341170,2318 Lake Shore Boulevard West,Basement,Etobicoke,ON,M8V1B5
1066440,230 Browns Line,,Etobicoke,ON,M8W3T4
9998501,3280 Bloor Street West,Suite 1070,Etobicoke,ON,M8X2X3
6342467,85 The East Mall,Suite LF-01,Etobicoke,ON,M8Z5W4
7479246,85 The East Mall,Suite LF-01,Etobicoke,ON,M8Z5W4
1018336,100 Humber College Boulevard,Suite 106,Etobicoke,ON,M9V5G4
1097398,1525 Albion Road,Lower Level 4,Etobicoke,ON,M9V5G5
6105659,123 Rexdale Boulevard,Unit 6,Etobicoke,ON,M9W1P1
4979129,190 Sherway Drive,Suite 205,Etobicoke,ON,M9C5N2
2988099,1735 Kipling Avenue,Suite 202,Etobicoke,ON,M9R2Y8
2200647,1735 Kipling Avenue,Suite 202,Etobicoke,ON,M9R2Y8
2549971,1436 Royal York Road,Suite 103,Etobicoke,ON,M9P3A9
1315320,135 Queen's Plate Drive,Suite 140,Etobicoke,ON,M9W6V1
4023504,523 The Queensway,Suite 2,Etobicoke,ON,M8Y1J7
5120350,1255 The Queensway,Unit 16A,Etobicoke,ON,M8Z1S1
2131921,110 Queen's Plate Drive,Unit 1-4,Etobicoke,ON,M9W0B4
3511991,1243 Islington Avenue,Suite 603,Etobicoke,ON,M8X1Y9
5196153,205 Francis Street East,"Upper Level, Box 698",Fenelon Falls,ON,K0M1N0
3544741,99 Sinclair Avenue,Suite 112,Georgetown,ON,L7G5G1
8294097,879 Shefford Road,,Gloucester,ON,K1J8H9
3979430,70 Meredith Street,,Gore Bay,ON,P0P1H0
283159,125 Steamship Bay Road,Suite 2,Gravenhurst,ON,P1P1Z9
9011776,37 Main Street East,Unit 4,Grimsby,ON,L3M1M7
6228834,89 Dawson Road,Suite 214,Guelph,ON,N1H1B1
5527691,83 Dawson Road,Suite 105,Guelph,ON,N1H1B1
2311145,83 Dawson Road,Suite 105,Guelph,ON,N1H1B1
899634,1030 Gordon Street,,Guelph,ON,N1G4X5
2150369,54 Cardigan Street,,Guelph,ON,N1H3Z6
2617999,311 Woolwich Street,Unit C,Guelph,ON,N1H3W4
5341130,175 Chancellors Way,Suite 201,Guelph,ON,N1G0E9
7673856,1223 Barton Street East,,Hamilton,ON,L8H2V4
3461004,25 Charlton Avenue East,Suite G2,Hamilton,ON,L8N1Y2
6024148,"1200 Main Street West, Room 2F39",McMaster University Medical Centre,Hamilton,ON,L8N3Z5
171218,260 Nebo Road,Unit 5,Hamilton,ON,L8W3K5
1239760,631 Queenston Road,Suite 303,Hamilton,ON,L8K6R5
1280501,260 Nebo Road,Unit 5,Hamilton,ON,L8W3K5
6442467,260 Nebo Road,Unit 5,Hamilton,ON,L8W3K5
1664966,200 James Street South,Suite 305 and 309,Hamilton,ON,L8P3A9
3005225,1149 Barton Street East,Unit X2B,Hamilton,ON,L8H2V2
5661478,849 Upper Wentworth Street,Suite 400,Hamilton,ON,L9A5H4
2049359,1057 Main Street West,Suite 102,Hamilton,ON,L8S1B7
2130346,849 Upper Wentworth Street,Suite 102,Hamilton,ON,L9A5H4
5515053,1 Young Street,Suite 302,Hamilton,ON,L8N1T8
5908468,55 Frid Street,Unit 7,Hamilton,ON,L8P4M3
1783840,414 Victoria Avenue North,Suite L1,Hamilton,ON,L8L5G8
5056225,1 Young Street,Suite 105,Hamilton,ON,L8N1T8
3906255,723 Rymal Road West,Suite 600,Hamilton,ON,L9B2W2
6651316,115 Parkdale Avenue South,,Hamilton,ON,L8K6K4
8159666,1 Young Street,Suite 105,Hamilton,ON,L8N1T8
6054800,723 Rymal Road West,Unit 600,Hamilton,ON,L9B2W2
7802188,130 Wilson Street,,Hamilton,ON,L8R1E2
1019605,219 Main Street East,,Hawkesbury,ON,K6A1A1
1154514,1062 Ghislain Street,Trillium Medical Centre,Hawkesbury,ON,K6A3B2
3424685,100 Frank Miller Drive,,Huntsville,ON,P1H1H7
9454133,348 Muskoka Road 3 North,Unit 202,Huntsville,ON,P1H1H8
3646159,7982 Yonge Street,,Innisfil,ON,L9S1L5
2674525,1081 Innisfil Beach Road,,Innisfil,ON,L9S0N2
4499203,7325 Yonge Street,Suites 1300 & 1400,Innisfil,ON,L9S2M6
6156400,7869 Yonge Street,Unit 3,Innisfil,ON,L9S1B8
5620970,525 Legget Drive,,Kanata,ON,K2K2W2
2349977,99 Kakulu Road,,Kanata,ON,K2L3C8
2651790,1108 Klondike Road,,Kanata,ON,K2K0G1
5306447,150 Katimavik Road,Unit 102,Kanata,ON,K2L2N2
2645846,150 Katimavik Road,,Kanata,ON,K2L2N2
3054654,80 Michael Cowpland Drive,,Kanata,ON,K2M1P6
984310,150 Katimavik Road,,Kanata,ON,K2L2N2
6621344,1380 Upper Canada Street,,Kanata,ON,K2T0N7
9312394,320 March Road,,Kanata,ON,K2K2E3
1208542,110 Michael Cowpland Drive,Unit B,Kanata,ON,K2M1P6
3858202,110 Michael Cowpland Drive,Unit B,Kanata,ON,K2M1P6
7116100,23546 Woodbine Avenue,Unit 7,Keswick,ON,L4P0E2
9422897,1700 King Road,Unit B2,King City,ON,L7B0N1
1023713,20 Doctors Lane,,King City,ON,L7B1G2
4028209,27 Place d'Armes,Unit 100,Kingston,ON,K7K6Z6
97684,797 Princess Street,Suite 422,Kingston,ON,K7L1G1
5516558,797 Princess Street,Suite 422,Kingston,ON,K7L1G1
3428306,797 Princess Street,Suite 422,Kingston,ON,K7L1G1
8844468,776 Blackburn Mews East,,Kingston,ON,K7P2N7
5476409,776 Blackburn Mews East,,Kingston,ON,K7P2N7
1043918,836 John Marks Avenue,,Kingston,ON,K7K0J7
6084600,836 John Marks Avenue,,Kingston,ON,K7K0J7
5476417,725 Arlington Park Place,Suite 3,Kingston,ON,K7M7E4
8477146,920 Princess Street,Suite 110,Kingston,ON,K7L1H1
1165189,724 Arlington Park Place,,Kingston,ON,K7M8H9
6123069,460 Princess Street,,Kingston,ON,K7L1C2
8380567,59 Main Street East,,Kingsville,ON,N9Y1A1
4275127,200 Main Street East,,Kingsville,ON,N9Y1A6
9728856,564 Belmont Avenue West,Suite 209,Kitchener,ON,N2M5N6
1128788,564 Belmont Avenue West,Suite 411,Kitchener,ON,N2M5N6
86164,751B Victoria Street South,Suite 108,Kitchener,ON,N2M5N4
6021198,751B Victoria Street South,Suite 108,Kitchener,ON,N2M5N4
8315668,932 King Street West,Suite 7,Kitchener,ON,N2G1G4
9156707,4278 King Street East,Unit A,Kitchener,ON,N2P2G5
2013561,4271 King Street East,Suite 200,Kitchener,ON,N2P2X7
9128031,100 Garment Street,Unit B,Kitchener,ON,N2G0C3
4428801,564 Belmont Avenue West,Suite 306,Kitchener,ON,N2M5N6
1019914,31 Kingsbury Drive,"4th Floor, Unit 401",Kitchener,ON,N2A0K5
2642434,751 Victoria Street South,Suite B100,Kitchener,ON,N2M5N4
2946427,751 Victoria Street South,Suite B100,Kitchener,ON,N2M5N4
3423195,751 Victoria Street South,Suite B100,Kitchener,ON,N2M5N4
3842356,385 Fairway Road South,,Kitchener,ON,N2C2N9
9645264,751 Victoria Street South,Suite B100,Kitchener,ON,N2M5N4
2681045,2125 Front Road North,Suite 5,LaSalle,ON,N9J2C1
1095686,1775 Sprucewood Avenue,Unit A11,Lasalle,ON,N9J1X7
7643018,33 Princess Street,Suite 305,Leamington,ON,N8H5C5
5201893,601 Limoges Road,,Limoges,ON,K0A2M0
3425711,65 Angeline Street North,Suite 8,Lindsay,ON,K9V5N7
4591009,39 Commerce Road,,Lindsay,ON,K9V5Y3
4052919,86 Angeline Street South,Unit 102,Lindsay,ON,K9V6C5
1791799,86 Angeline Street South,Unit 102,Lindsay,ON,K9V6C5
5862577,10 Angeline Street North,Third Floor,Lindsay,ON,K9V4M8
5711840,3209 Wonderland Road South,Unit B,London,ON,N6L1R4
8423583,595 Bradley Avenue,,London,ON,N6E3Z8
101893,450 Central Avenue,Suite 104,London,ON,N6B2E8
3054106,1657 Dundas Street,,London,ON,N5W3C6
1401372,440 Boler Road,Suite 103,London,ON,N6K4L2
4201319,1657 Dundas Street,,London,ON,N5W3C6
7477927,450 Central Avenue,Suite 103,London,ON,N6E2E8
673329,279 Wharncliffe Road North,Suite 111,London,ON,N6H2C2
3011387,1055 Fanshawe Park Road West,,London,ON,N6G5B4
5922447,510 Southdale Road East,Suite 103,London,ON,N6E0B2
6341894,510 Southdale Road East,Suite 103,London,ON,N6E0B2
2299605,555 Southdale Road East,Suite 107,London,ON,N6E1A2
2601890,460 Springbank Drive,Suite 311,London,ON,N6J1G8
6988415,931 Commissioners Road East,Suite 200,London,ON,N5Z3H9
4123551,320 Adelaide Street South,,London,ON,N5Z3L2
93490,268 Main Street,,Lucan,ON,N0M2J0
3046918,5492 South River Drive,,Manotick,ON,K4M1A4
6479726,191 McNaughton Road East,Suite 402,Maple,ON,L6A4E2
1876720,2810 Major MacKenzie Drive,Unit 1,Maple,ON,L6A3L2
5949017,1530 Major Mackenzie Drive,Unit 4,Maple,ON,L6A0A9
6601506,955 Major Mackenzie Drive,Suite 400,Maple,ON,L6A4P9
3122506,191 McNaughton Road East,Units 404-407,Maple,ON,L6A4E2
5446730,9600 Bathurst Street,Suite 302,Maple,ON,L6A3Z8
2699424,9255 Woodbine Avenue,Unit 2,Markham,ON,L6C1Y9
1754847,5293 Highway 7 East,Suite 209,Markham,ON,L3P7M7
9096124,7155 Woodbine Avenue,Suite B104,Markham,ON,L3R1A3
5634290,7300 Warden Avenue,Suite 103,Markham,ON,L3R9Z6
2086353,262B Main Street North,,Markham,ON,L3P1Y7
9966472,50 Minthorn Boulevard,Suite 101,Markham,ON,L3T7X8
3704912,50 Minthorn Boulevard,Suite 101,Markham,ON,L3T7X8
9071108,"379 Church Street, 5th Floor",Markham-Stouffville Health Centre,Markham,ON,L6B0T1
6477901,5293 Highway 7 East,Suites 7 and 8,Markham,ON,L3P7M7
9669730,110 Copper Creek Drive,Suite 202,Markham,ON,L6B0P9
3862680,377 Church Street,Unit 302,Markham,ON,L6B1A1
1276899,6633 Highway 7 East,Suite 005,Markham,ON,L3P7P2
7855678,39 Main Street Markham North,Unit 1,Markham,ON,L3P1X3
2073604,377 Church Street,Suite 305,Markham,ON,L6B1A1
8022301,10 Unionville Gate,Suite 204,Markham,ON,L3R0W7
7307202,7155 Woodbine Avenue,Suite B103,Markham,ON,L3R1A3
3684649,240 Penetanguishene Road,Suite 210,Midland,ON,L4R4P4
2428912,309 Midland Avenue,,Midland,ON,L4R3K5
5200302,240 Penetanguishene Road,Suite 210,Midland,ON,L4R4P4
6525556,100 Nipissing Road,Unit 2A,Milton,ON,L9T5B2
4791326,100 Nipissing Road,Unit 2A,Milton,ON,L9T5B2
7174424,611 Holly Avenue,Unit 205,Milton,ON,L9T0K4
5261893,480 Bronte Street South,Suite 212,Milton,ON,L9T9A9
4164804,2800 Highpoint Drive,Suite 215,Milton,ON,L9T6P4
917765,611 Holly Avenue,Unit 105,Milton,ON,L9T0K4
1096910,4303 Village Centre Court,,Mississauga,ON,L4Z1S2
3512576,1077 North Service Road,Suite 208A,Mississauga,ON,L4Y1A6
7187966,4296 Village Centre Court,,Mississauga,ON,L4Z1S2
9852054,78 - 3465 Platinum Drive,,Mississauga,ON,L5M2S1
5306449,2000 Credit Valley Road,Suite 103,Mississauga,ON,L5M4N4
4791536,2300 Eglinton Avenue West,Suite 510,Mississauga,ON,L5M2V8
2465946,6590 Meadowvale Town Centre Circle,Unit 6,Mississauga,ON,L5N4B7
8361818,3461 Dixie Road,Suite 201,Mississauga,ON,L4Y3X4
9997530,1420 Burnhamthorpe Road East,Suite 103,Mississauga,ON,L4X2Z9
2685185,3420 Hurontario Street,Suite 205,Mississauga,ON,L5B4A9
7641693,3461 Dixie Road,Suite 201,Mississauga,ON,L4Y3X4
92384,10 Kingsbridge Garden Circle,Suite 100,Mississauga,ON,L5R3K6
5094573,10 Kingsbridge Garden Circle,Suite 100,Mississauga,ON,L5R3K6
8919908,10 Kingsbridge Garden Circle,Suite 100,Mississauga,ON,L5R3K6
3023145,50 Burnhamthorpe Road West,Suite 343,Mississauga,ON,L5B3C2
7031510,2075 Hadwen Road,,Mississauga,ON,L5K2L3
3700104,2075 Hadwen Road,,Mississauga,ON,L5K2L3
1149497,3530 Derry Road East,Unit 109,Mississauga,ON,L4T4E3
6658219,6870 Goreway Drive,Unit 101,Mississauga,ON,L4V1P1
8443988,6870 Goreway Drive,Unit 101,Mississauga,ON,L4V1P1
5002106,2575 Dundas Street West,Unit 22,Mississauga,ON,L5K2M6
9077907,801 Dundas Street East,,Mississauga,ON,L4Y4G9
1575789,1525 Bristol Road West,Unit 10,Mississauga,ON,L5M4Z1
5463510,1370 Dundas Street East,Suite 204,Mississauga,ON,L4Y4G4
3413583,2300 Eglinton Avenue West,,Mississauga,ON,L5M2V8
8102441,2300 Eglinton Avenue West,Suites G01 and G02,Mississauga,ON,L5M2V8
5123616,4250 Sherwoodtowne Boulevard,,Mississauga,ON,L4Z2G6
3433683,1000 Middlegate Road,Suite 104,Mississauga,ON,L4Y1M3
3898523,1000 Middlegate Road,Second Floor,Mississauga,ON,L4Y1M3
2678588,71 King Street West,Suite 102,Mississauga,ON,L5B4A2
5066420,1020 Johnson's Lane,Building C,Mississauga,ON,L5J2P7
3362255,5055 Plantation Place,Suite 2,Mississauga,ON,L5M6J3
1461001,7070 Saint Barbara Boulevard,Suites 72 and 74,Mississauga,ON,L5W0E6
4001894,3950 Grand Park Drive,Unit F3A,Mississauga,ON,L5B4M6
5043916,89 Queensway West,Unit 104,Mississauga,ON,L5B2V2
1123910,100 Matheson Boulevard,Unit 204,Mississauga,ON,L4Z2G7
6633552,5425 Creditview Road,Unit 8,Mississauga,ON,L5V2P3
5542672,101 Queensway West,Unit 202,Mississauga,ON,L5B2P7
2055985,660 Eglinton Avenue West,Unit 5C,Mississauga,ON,L5R3V2
9991410,21 Queensway West,Suite 107,Mississauga,ON,L5B1B6
1124016,50 Burnhamthorpe Road West,Suite 70,Mississauga,ON,L5B3C2
4137196,1000 Middlegate Road,Second Floor,Mississauga,ON,L4Y1M3
2046597,1421 Hurontario Street,,Mississauga,ON,L5G3H5
5419181,3024 Hurontario Street,Suites 208 and 201,Mississauga,ON,L5B4M4
6152140,2180 Meadowvale Boulevard,,Mississauga,ON,L5N5S3
5907025,2006 Robertson Road,Unit 16,Nepean,ON,K2H1A5
5479040,1 Centrepointe Drive,Suite 106,Nepean,ON,K2G6E2
5941130,605 Longfields Drive,,Nepean,ON,K2J5N2
5923144,2 Gurdwara Road,Suite 602,Nepean,ON,K2E1A2
4276791,1 Centrepointe Drive,,Nepean,ON,K2G6E2
9653578,1221 Greenbank Road,,Nepean,ON,K2J5V7
4646978,1370 Clyde Avenue,,Nepean,ON,K2G3H8
9601064,1370 Clyde Avenue,,Nepean,ON,K2G3H8
5426830,152 Cleopatra Drive,Suite 105,Nepean,ON,K2G5X2
3197120,338 Waterloo Street,Unit 10,New Hamburg,ON,N3A0C5
2943444,338 Waterloo Street,Units 10 & 11,New Hamburg,ON,N3A0C5
1238765,535 Mulock Drive,Suite 300,Newmarket,ON,L3Y5H2
7400617,535 Mulock Drive,Suite 300,Newmarket,ON,L3Y5H2
2952163,23 Bolton Avenue,,Newmarket,ON,L3Y2X3
4750600,16945 Leslie Street,Unit 44,Newmarket,ON,L3Y9A2
6041443,17730 Leslie Street,Suite 106,Newmarket,ON,L3Y3E4
7398890,679 Davis Drive,Suite 104,Newmarket,ON,L3Y5G8
8177301,28 Main Street North,,Newmarket,ON,L3Y3Z7
5999996,7885 McLeod Road,"Units D6, D7, D8 and D9",Niagara Falls,ON,L2H0G5
2587918,5400 Portage Road,Suite B2,Niagara Falls,ON,L2G5X7
2857823,6453 Morrison Street,Suite 1,Niagara Falls,ON,L2E7H1
1357216,4728 Dorchester Road,Suite 10,Niagara Falls,ON,L2E7H9
4971684,6453 Morrison Street,Suite 204,Niagara Falls,ON,L2E7H1
1649261,4256 Portage Road,Suite 305,Niagara Falls,ON,L2E6A4
5259129,6453 Morrison Street,Suite 1,Niagara Falls,ON,L2E7H1
8827980,5668 Main Street,,Niagara Falls,ON,L2G5Z4
2761662,4256 Portage Road,Suite 101,Niagara Falls,ON,L2E6A4
4026910,5668 Main Street,,Niagara Falls,ON,L2G5Z4
7381723,6800 Morrison Street,Unit 4,Niagara Falls,ON,L2E6Z8
7072621,5668 Main Street,,Niagara Falls,ON,L2G5Z4
9152094,1221 Algonquin Avenue,Suite 104,North Bay,ON,P1B4Y3
479414,60 Champlain Street,Suites 104 and 203,North Bay,ON,P1B7M4
8620970,107 Shirreff Avenue,Suite 204,North Bay,ON,P1B7K8
6302141,107 Shirreff Avenue,Suite 204,North Bay,ON,P1B7K8
2092219,107 Shirreff Avenue,Suite 206,North Bay,ON,P1B7K8
9213446,25 Sheppard Avenue West,Suite 650,North York,ON,M2N6S6
4600375,845 Wilson Avenue,Suite 301,North York,ON,M3K1E6
7259110,491 Lawrence Avenue West,Suite 501,North York,ON,M5M1C7
5755971,4256 Bathurst Street,Suite 104,North York,ON,M3H5Y8
5460296,4430 Bathurst Street,Suite 207,North York,ON,M3H3S3
4220266,4430 Bathurst Street,Suite 207,North York,ON,M3H3S3
9827632,508 Lawrence Avenue West,Unit 25,North York,ON,M6A1A1
372397,240 Duncan Mill Road,Suite 804,North York,ON,M3B3S6
56104,240 Duncan Mill Road,Suite 804,North York,ON,M3B3S6
6714271,1054 Wilson Avenue,,North York,ON,M3K1G6
5381746,20 Wynford Drive,Suite 308,North York,ON,M3C1J4
4327119,206 Sheppard Avenue West,,North York,ON,M2N1N1
1236356,2065 Finch Avenue West,Suite B-1,North York,ON,M3N2V7
3872770,2065 Finch Avenue West,Suite B01,North York,ON,M3N2V7
3432501,1262 Don Mills Road,Suite 206,North York,ON,M3B2W7
899840,906 Sheppard Avenue West,Unit 6,North York,ON,M3H2T5
7441460,2830 Keele Street,Suite 201,North York,ON,M3M3E5
6359249,162 Willowdale Avenue,,North York,ON,M2N4Y6
7635696,4100 Yonge Street,Suite 110B,North York,ON,M2P2B7
391536,2100 Finch Avenue West,Unit 212,North York,ON,M3N2Z9
9718852,1315 Finch Avenue West,Suite 114,North York,ON,M3J2G6
1277724,701 Sheppard Avenue East,Suite 316,North York,ON,M2K2Z3
5413507,204 - 638 Sheppard Avenue West,,North York,ON,M3H2S1
1147879,4800 Leslie Street,Lower Level,North York,ON,M2J2K9
2649434,4800 Leslie Street,Lower Level,North York,ON,M2J2K9
8249983,6464 Yonge Street,Unit 101A,North York,ON,M2M3X4
6450566,6464 Yonge Street,Unit 101A,North York,ON,M2M3X4
4627346,4789 Yonge Street,Suite 210,North York,ON,M2N0G3
2201541,1017 Wilson Avenue,Suite 100,North York,ON,M3K1Z1
5051744,1017 Wilson Avenue,Suite 100,North York,ON,M3K1Z1
4999844,2780 Jane Street,Unit LL9,North York,ON,M3N2J2
5606887,2141 Jane Street,Lower Level,North York,ON,M3M1A2
6542468,4640 Jane Street,"Basement, Suite B2",North York,ON,M3N2K5
3855279,1310 Don Mills Road,,North York,ON,M3B2W6
5116153,2355 Keele Street,Unit D-1,North York,ON,M6M4A2
2585972,1020 Wilson Avenue,,North York,ON,M3K1G6
8422510,5 Fairview Mall Drive,Suite 100,North York,ON,M2J2Z1
5456687,5 Fairview Mall Drive,Suite 105,North York,ON,M2J2Z1
2611505,701 Sheppard Avenue East,Suite 316,North York,ON,M2K2Z3
5344747,2888 Bathurst Street,Unit 100,North York,ON,M6B4H6
3996912,18 Wynford Drive,Suite 507,North York,ON,M3C3S2
7698830,1275 Finch Avenue West,Unit 114,North York,ON,M3J0L5
9979238,960 Lawrence Avenue West,Suite 203,North York,ON,M6A3B5
6346094,4949 Bathurst Street,Suite 100,North York,ON,M2R1Y1
6882555,2065 Finch Avenue West,Suite 400,North York,ON,M3N2V7
969265,250 Marlee Avenue,,North York,ON,M6B3H7
1012598,250 Marlee Avenue,,North York,ON,M6B3H7
7514768,2 Champagne Drive,Unit B21,North York,ON,M3J2C5
2984302,2 Champagne Drive,Unit B15,North York,ON,M3J2C5
3031776,960 Lawrence Avenue West,Suite 203,North York,ON,M6A3B5
8100003,2221 Keele Street,Suite 106,North York,ON,M6M3Z5
5058023,20 Wynford Drive,Suite 312,North York,ON,M3C1J4
2021087,1310 Don Mills Road,Suite 5,North York,ON,M3B2W6
4042591,491 Lawrence Avenue West,Unit LL2,North York,ON,M5M1C7
6710205,2 Champagne Drive,Unit B23,North York,ON,M3J2C5
5076918,2 Champagne Drive,Unit B23,North York,ON,M3J2C5
2089444,18 Wynford Drive,Suite 108,North York,ON,M3C3S2
2479120,1333 Sheppard Avenue East,Suite 118,North York,ON,M2J1V1
3153812,18 Wynford Drive,Suite 511,North York,ON,M3C3S2
6661241,1110 Sheppard Avenue East,Suite 204,North York,ON,M2K2W2
7815710,5 Fairview Mall Drive,Suite 412,North York,ON,M2J2Z1
4976719,4250 Weston Road,Suite 100,North York,ON,M9L1W9
2313077,4250 Weston Road,Suite 100,North York,ON,M9L1W9
1423510,2225 Sheppard Avenue East,Suite 901,North York,ON,M2J5C2
1826494,4025 Yonge Street,Suite 215,North York,ON,M2P2E3
7321714,36 York Mills Road,Suite 100,North York,ON,M2P2E9
3041449,298 Sheppard Avenue East,,North York,ON,M2N3B1
1716639,2888 Bathurst Street,2nd Floor,North York,ON,M6B4H6
7845546,2888 Bathurst Street,,North York,ON,M6B4H6
1102447,1448 Lawrence Avenue East,Suite 209,North York,ON,M4A2V6
4689533,1252 Lawrence Avenue East,Unit 201,North York,ON,M3A1C3
2546871,4841 Yonge Street,Suite 104,North York,ON,M2N5X2
4610057,2115 Finch Avenue West,Suite 316,North York,ON,M3N2V6
9891410,1333 Sheppard Avenue East,Suite 125,North York,ON,M2J1V1
3824216,1333 Sheppard Avenue East,Suite 100,North York,ON,M2J1V1
6801400,1100 Sheppard Avenue East,Suite 103,North York,ON,M2K2W1
2076728,219 Sheppard Avenue West,,North York,ON,M2N1N2
2460946,1333 Sheppard Avenue East,Suite 100,North York,ON,M2J1V1
6200566,3292 Bayview Avenue,Suites 206 & 207,North York,ON,M2M4J5
1509129,3695 Keele Street,Suite 100,North York,ON,M3J1N2
5401460,2525 Old Bronte Road,Unit 420,Oakville,ON,L6M4J2
2546447,1235 Trafalgar Road,Suite B1,Oakville,ON,L6H3P1
1982119,3075 Hospital Gate,Suite 208,Oakville,ON,L6M1M1
1544413,2035 Cornwall Road,,Oakville,ON,L6J7S2
3046724,1405 Cornwall Road,Unit A 1-2,Oakville,ON,L6J7T5
5821598,2315 Bristol Circle,,Oakville,ON,L6H6P8
3171114,420 North Service Road East,Unit 1,Oakville,ON,L6H5R2
5461810,2201 Bristol Circle,Unit 101,Oakville,ON,L6H0J8
4172891,1235 Trafalgar Road,Suite B4,Oakville,ON,L6H3P1
8130576,2525 Old Bronte Road,Suite 140,Oakville,ON,L6M4J2
6587309,"1060 Speers Road, Suite 111",Oakville Health Centre,Oakville,ON,L6L2X4
1021308,2525 Old Bronte Road,Suite 140,Oakville,ON,L6M4J2
4053917,2525 Old Bronte Road,Suite 140,Oakville,ON,L6M4J2
3201545,229 Broadway Avenue,Unit 4,Orangeville,ON,L9W1K4
3980103,314 Broadway Avenue,,Orangeville,ON,L9W1L3
938961,190 Memorial Avenue,Suite D,Orillia,ON,L3V5X6
456976,384 West Street North,Suite 2,Orillia,ON,L3V5E6
56809,119 Memorial Avenue,Suite 105,Orillia,ON,L3V5X1
8134489,16 O'Brien Street,Suite G3,Orillia,ON,L3V5S2
5592602,4270 Innes Road,,Orleans,ON,K4A5E6
4405477,1220 Promenade Place D'Orleans,Suite 103,Orleans,ON,K1C7K3
3279068,2003 St. Joseph Boulevard,,Orleans,ON,K1C1E5
5936493,5929 Jeanne D'Arc Boulevard South,Unit 24,Orleans,ON,K1C6V8
3177417,4289 Innes Road,,Orleans,ON,K1E0A8
9571127,3331 Line 4 North,,Oro-Medonte,ON,L0L2L0
1876782,149 King Street West,,Oshawa,ON,L1J2J3
4076791,1290 Keith Ross Court,,Oshawa,ON,L1H7K4
5051268,117 King Street East,Oshawa Clinic,Oshawa,ON,L1H1B9
957098,300 King Street West,Suite 201,Oshawa,ON,L1J2K1
1548875,1400 Ritson Road North,Suite 001,Oshawa,ON,L1G7W4
5846903,115 Simcoe Street South,,Oshawa,ON,L1H4G7
7288988,247 Simcoe Street North,Suite 301,Oshawa,ON,L1G4T3
9022036,300 King Street West,Suite 108,Oshawa,ON,L1J2K1
8823157,247 Simcoe Street North,Suites 301 and 302,Oshawa,ON,L1G4T3
6503755,11 Gibb Street,,Oshawa,ON,L1H2J9
8477160,292 King Street West,,Oshawa,ON,L1J2J9
5611024,419 King Street West,Suite 115,Oshawa,ON,L1J2K5
1464810,1385 Bank Street,Suite 515,Ottawa,ON,K1H8N4
4171308,1929 Russell Road,Suite 102,Ottawa,ON,K1G4G3
7724098,1181 Hunt Club Road,Building A,Ottawa,ON,K1V8S4
5051367,168 Charlotte Street,,Ottawa,ON,K1N8K6
972397,1545 Carling Avenue,,Ottawa,ON,K1Z8P9
8806931,100 Queen Street,,Ottawa,ON,K1P1A5
2901413,303 Dalhousie Street,,Ottawa,ON,K1N7E8
156467,1081 Carling Avenue,,Ottawa,ON,K1Y4G2
1966725,595 Montreal Road,Suite 205,Ottawa,ON,K1K4L2
6768912,380 Hunt Club Road,Unit 103,Ottawa,ON,K1V1C1
3406312,570 Lacolle Way,,Ottawa,ON,K4A0N9
1424304,550 Terminal Avenue,,Ottawa,ON,K1G0Z3
844166,770 Broadview Avenue,Suite B2,Ottawa,ON,K2A3Z3
7499244,1081 Carling Avenue,Suite 201,Ottawa,ON,K1Y4G2
7462261,1355 Bank Street,Suites 203 and 205,Ottawa,ON,K1H8K7
1755537,1919 Riverside Drive,Suite 209,Ottawa,ON,K1H1A2
1966730,350 Sparks Street,Suite 216,Ottawa,ON,K1R7S8
7431393,1105 Carling Avenue,Suite 101,Ottawa,ON,K1Y4G5
4412910,1730 St. Laurent Boulevard,Unit 600,Ottawa,ON,K1G5L1
9721107,1355 Bank Street,Suite 502,Ottawa,ON,K1H8K7
156468,1145 Hunt Club Road,Suite 560,Ottawa,ON,K1V0Y3
4139984,101 - 2260 Walkley Road,,Ottawa,ON,K1G6A8
2780785,1105 Carling Avenue,,Ottawa,ON,K1Y4G5
8958536,680 Montreal Road,,Ottawa,ON,K1K0T3
7565349,1730 St. Laurent Boulevard,Suite 100,Ottawa,ON,K1G5L1
5054894,1919 Riverside Drive,Suite 212,Ottawa,ON,K1H1A2
2876790,65 Bank Street,3rd and 4th Floors,Ottawa,ON,K1P5N2
5005756,955 Green Valley Crescent,Unit 100,Ottawa,ON,K2C3V4
4363375,1840 Woodward Avenue,Unit 2A,Ottawa,ON,K2C9P7
3180971,2148 Carling Avenue,Suite 205,Ottawa,ON,K2A1H1
5812004,2148 Carling Avenue,Unit 205,Ottawa,ON,K2A1H1
3090625,1880 - 8th Street East,Room 7220,Owen Sound,ON,N4K6M9
5081582,1415 - 1st Avenue West,Suite 3006,Owen Sound,ON,N4K4K8
3116962,25 Curtis Avenue North,,Paris,ON,N3L3V3
2149972,700 Mackay Street,,Pembroke,ON,K8A1G6
5106332,9 Eric Devlin Lane,,Perth,ON,K7H0C2
6004800,9 Eric Devlin Lane,,Perth,ON,K7H0C4
9991980,154 Civic Centre Road,,Petawawa,ON,K8H3H5
1813156,26 Hospital Drive,,Peterborough,ON,K9J7C3
1663135,1757 Sherbrooke Street,,Peterborough,ON,K9K0G1
4013891,815 High Street,Unit 7,Peterborough,ON,K9J8J9
4441238,327 Charlotte Street,Suite 102,Peterborough,ON,K9J0B2
9669790,327 Charlotte Street,3rd Floor,Peterborough,ON,K9J0B2
5041744,270 Charlotte Street,Suite 101,Peterborough,ON,K9J2V4
954510,707 Charlotte Street,,Peterborough,ON,K9J2X5
144166,707 Charlotte Street,,Peterborough,ON,K9J2X5
8033569,270 Charlotte Street,Suite 202,Peterborough,ON,K9J2V4
6397967,707 Charlotte Street,,Peterborough,ON,K9J2X5
5320546,26 Hospital Drive,,Peterborough,ON,K9J7C3
5409604,849 Alexander Court,Suite 208B,Peterborough,ON,K9J7H8
7597613,170 Simcoe Street,,Peterborough,ON,K9H2H7
1203541,26 Hospital Drive,,Peterborough,ON,K9J7C3
4443981,1550 Kingston Road,Unit 6,Pickering,ON,L1V1C3
2351968,1690 Dersan Street,Suite 130,Pickering,ON,L1V2P8
5403904,1105 Kingston Road,Unit D202,Pickering,ON,L1V1B5
2860601,1099 Kingston Road,Unit 5D,Pickering,ON,L1V1B5
9367999,1885 Glenanna Road,Suites 103/105/106,Pickering,ON,L1V6R6
3033991,704 Mara Street,Suite 102,Point Edward,ON,N7V1X4
911893,249 Ontario Street,Suite 110,Port Hope,ON,L1A3Y9
1366497,462 Paxton Street,Unit B07,Port Perry,ON,L9L1L9
8667902,9160 Bayview Avenue,Unit B01,Richmond Hill,ON,L4B0E6
6419378,1 Spadina Road,Unit 19,Richmond Hill,ON,L4B3M2
6346054,9651 Yonge Street,,Richmond Hill,ON,L4C1V7
1539185,328 Highway 7 East,Suite 308,Richmond Hill,ON,L4B3P7
3218304,9080 Yonge Street,"Unit 15, Level 2",Richmond Hill,ON,L4C0Y7
8087364,13291 Yonge Street,Suite 301,Richmond Hill,ON,L4E4L6
3570063,10243 Yonge Street,Second Floor,Richmond Hill,ON,L4C3B2
2620058,10243 Yong Street,2nd Floor,Richmond Hill,ON,L4C3B2
7936930,330 Highway 7 East,Unit 205,Richmond Hill,ON,L4B3P8
7525902,250 Harding Boulevard West,Suite B02,Richmond Hill,ON,L4C9M7
5419692,13291 Yonge Street,Suite 300 and Fourth Floor,Richmond Hill,ON,L4E4L6
2771167,2741 Chamberland Street,Suite 207,Rockland,ON,K4K0B8
3306447,2741 Chamberland Street,Suite 207,Rockland,ON,K4K0B8
4262698,2741 Chamberland Street,Suite 207,Rockland,ON,K4K0B8
1391442,2741 Chamberland Street,Suite 207,Rockland,ON,K4K0B8
7761988,2741 Chamberland Street,Suite 207,Rockland,ON,K4K0B8
8597363,1315 Michigan Avenue,,Sarnia,ON,N7S4M6
6250390,1500 London Road,,Sarnia,ON,N7S1P7
5905974,481 London Road,,Sarnia,ON,N7T4X3
2391566,481 London Road,,Sarnia,ON,N7T4X3
2699434,477 Queen Street East,Suite 103,Sault Ste. Marie,ON,P6A1Z5
8998526,677 Great Northern Road,Unit 1,Sault Ste. Marie,ON,P6B5A1
614160,955 Queen Street East,Suite 50,Sault Ste. Marie,ON,P6A2C3
8423504,955 Queen Street East,Suite 50,Sault Ste. Marie,ON,P6A2C3
841536,955 Queen Street East,Suite 50,Sault Ste. Marie,ON,P6A2C3
5016914,264 McNabb Street,,Sault Ste. Marie,ON,P6B1Y6
7147908,240 McNabb Street,,Sault Ste. Marie,ON,P6B1Y5
7209495,240 Alton Towers Circle,Suite 208,Scarborough,ON,M1V4P3
5038767,240 Alton Towers Circle,Suite 203A,Scarborough,ON,M1V4P3
6867950,2 Antrim Crescent,Unit 1A,Scarborough,ON,M1P2N3
6476722,1920 Ellesmere Road,Suite 311 and 311A,Scarborough,ON,M1H2V6
3111683,3333 Brimley Road,Unit D,Scarborough,ON,M1V2J7
5182135,2020 Brimley Road,,Scarborough,ON,M1S4R7
5050068,325 Milner Avenue,Suite 410,Scarborough,ON,M1B5N1
823597,4810 Sheppard Avenue East,,Scarborough,ON,M1S4N6
6812145,521 Victoria Park Avenue,Suite B1,Scarborough,ON,M4C5H1
3256753,521 Victoria Park Avenue,Suite B1,Scarborough,ON,M4C5H1
747966,520 Ellesmere Road,"Lower Level, Suite B15",Scarborough,ON,M1R0B1
5175509,4040 Finch Avenue East,Suite 310B,Scarborough,ON,M1S4V5
6026877,4002 Sheppard Avenue East,Suite 204,Scarborough,ON,M1S1S6
9641407,2805 Eglinton Avenue East,,Scarborough,ON,M1J2E1
6399969,2805 Eglinton Avenue East,,Scarborough,ON,M1J2E1
8186413,520 Ellesmere Road,301,Scarborough,ON,M1R0B1
7951319,2880 Ellesmere Road,,Scarborough,ON,M1E4B8
331166,2235 Kennedy Road,2nd Floor,Scarborough,ON,M1T3G8
36164,1880 Eglinton Avenue East,,Scarborough,ON,M1L2L1
6446292,2347 Kennedy Road,Suite 304,Scarborough,ON,M1T3T8
406443,55 Town Centre Court,Suite 109,Scarborough,ON,M1P4X4
9362513,4002 Sheppard Avenue East,Suite 304,Scarborough,ON,M1S1S6
3577982,4002 Sheppard Avenue East,Suite 304,Scarborough,ON,M1S1S6
3011367,3227 Eglinton Avenue East,Unit 148,Scarborough,ON,M1J3M5
1155846,2683 Lawrence Avenue East,Unit 5,Scarborough,ON,M1P2S2
9592312,4125 Lawrence Avenue East,Suite 210,Scarborough,ON,M1E2S2
4901319,4168 Finch Avenue East,"Suite G18, G51, G52",Scarborough,ON,M1S5H6
1344410,4168 Finch Avenue East,"Suite G18, G51, G52",Scarborough,ON,M1S5H6
9808292,3410 Sheppard Avenue East,Suite 303,Scarborough,ON,M1T3K4
5868472,1371 Neilson Road,Suite 306,Scarborough,ON,M1B4Z8
2346477,3585 Lawrence Avenue East,Unit 1A,Scarborough,ON,M1G1P4
1476703,3585 Lawrence Avenue East,Unit 1A,Scarborough,ON,M1G1P4
8125414,31 Tapscott Road,Unit 85,Scarborough,ON,M1B4Y7
6410566,1371 Neilson Road,Suite 309,Scarborough,ON,M1B4Z8
2251547,4040 Finch Avenue East,Lower Level 4,Scarborough,ON,M1S4V5
6543634,2130 Lawrence Avenue East,Suite 300,Scarborough,ON,M1R3A6
3033585,2900 Markham Road,Unit 16,Scarborough,ON,M1X1E6
1880121,2900 Markham Road,Unit 16,Scarborough,ON,M1X1E6
2211548,462 Birchmount Avenue,Unit 1 B,Scarborough,ON,M1K1N8
6678190,462 Birchmount Road,Unit 1B,Scarborough,ON,M1K1N8
5972525,462 Birchmount Avenue,Unit 1 B,Scarborough,ON,M1K1N8
8661227,462 Birchmount Road,Unit 1B,Scarborough,ON,M1K1N8
200177,3420 Finch Avenue East,Suite 101,Scarborough,ON,M1W2R6
4140949,4040 Finch Avenue East,Suite 108,Scarborough,ON,M1S4V5
3062794,3850 Finch Avenue East,Suite B09,Scarborough,ON,M1T3T6
6328797,3000 Lawrence Avenue East,Suite G03,Scarborough,ON,M1P2V2
8379411,3000 Lawrence Avenue East,Building C - Suite C02,Scarborough,ON,M1P2V1
8002369,1200 Markham Road,Suite 112,Scarborough,ON,M1H3C3
5563222,"2330 Kennedy Road, Suite 402",Agincourt Professional Centre,Scarborough,ON,M1T0A2
9611404,385 Silver Star Boulevard,"Units 210, 211 and 212",Scarborough,ON,M1V0E3
7215989,2130 Lawrence Avenue East,Suite 410,Scarborough,ON,M1R3A6
8170383,520 Ellesmere Road,Suite 301,Scarborough,ON,M1R0B1
9593010,2391 Eglinton Avenue East,,Scarborough,ON,M1K2M5
7026614,2855 Markham Road,Suite 408,Scarborough,ON,M1X0C3
8077920,2941 Lawrence Avenue East,,Scarborough,ON,M1P2V6
2151417,4040 Finch Avenue East,Suite LL5,Scarborough,ON,M1S4V5
1259588,2374 Eglinton Avenue East,,Scarborough,ON,M1K2P4
1923550,2025 Midland Avenue,Suite 200,Scarborough,ON,M1P3E2
8005265,3410 Sheppard Avenue East,,Scarborough,ON,M1T3K4
3075544,385 Silver Star Boulevard,Suite 209,Scarborough,ON,M1V0E3
3018297,2130 Lawrence Avenue East,Suite 410,Scarborough,ON,M1R3A6
2853922,3447 Kennedy Road,"Suite 200, 216, 223",Scarborough,ON,M1V3S1
4124581,1261 Kennedy Road,Suite 3,Scarborough,ON,M1P2L4
5265117,1261 Kennedy Road,Suite 3,Scarborough,ON,M1P2L4
1134842,1145 Morningside Avenue,Unit 12,Scarborough,ON,M1B0A7
1057016,1145 Morningside Avenue,Unit 12,Scarborough,ON,M1B0A7
5225596,520 Ellesmere Road,301,Scarborough,ON,M1R0B1
6057990,520 Ellesmere Road,Suite 501,Scarborough,ON,M1R0B1
8513766,4190 Finch Avenue East,Suite 405,Scarborough,ON,M1S4T7
8219102,1780 Markham Road,Units 5 & 6,Scarborough,ON,M1B2W2
2601696,2330 Kennedy Road,Suite 317,Scarborough,ON,M1T0A2
2350366,4190 Finch Avenue East,Suite LL04,Scarborough,ON,M1S4T7
1670323,2101 Brimley Road,Unit 203,Scarborough,ON,M1S2B4
208101,520 Ellesmere Road,Suite B15,Scarborough,ON,M1R0B1
2363315,520 Ellesmere Road,"Lower Level, Suite B15",Scarborough,ON,M1R0B1
9132225,462 Birchmount Road,Unit 1B,Scarborough,ON,M1K1N8
3966782,99 Firvalley Court,,Scarborough,ON,M1L1P2
4706496,4637 Kingston Road,Unit 3,Scarborough,ON,M1E2P8
3851600,46 Norfolk Street North,,Simcoe,ON,N3Y5C6
5901814,65 Donly Drive North,Unit 6,Simcoe,ON,N3Y0C2
1106997,216 West Street,Suite 304,Simcoe,ON,N3Y1S8
4223075,216 West Street,Suite 304,Simcoe,ON,N3Y1S8
8163056,91 Cornelia Street West,Suite A5C,Smiths Falls,ON,K7A5L3
850846,"589 Lake Street, Suite 104",Lakeshore Health Centre,St. Catharines,ON,L2N7L6
3612839,245 Pelham Road,Unit 213,St. Catharines,ON,L2S1X8
2391559,245 Pelham Road,Unit 213,St. Catharines,ON,L2S1X8
6941194,464 Welland Avenue,,St. Catharines,ON,L2M5V4
8315235,282 Linwell Road,Suite 116,St. Catharines,ON,L2N6N5
6797226,464 Welland Avenue,,St. Catharines,ON,L2M5V4
8195934,180 Vine Street South,Suite 106,St. Catharines,ON,L2R7P3
6056366,296 Welland Avenue,,St. Catharines,ON,L2R7L9
4137151,282 Linwell Road,Suite 118,St. Catharines,ON,L2N6N5
5280982,230 First Avenue,Suite 204,St. Thomas,ON,N5R4P5
8885646,460 Wellington Street,Suite 201,St. Thomas,ON,N5R6H9
460477,5709 Hazeldean Road,Unit 2,Stittsville,ON,K2S0P6
16104,35 Upper Centennial Parkway,Suite 3G,Stoney Creek,ON,L8J3W2
2896836,835 Paramount Drive,Unit 102,Stoney Creek,ON,L8J0B4
1057538,35 Upper Centennial Parkway,Suite 3C,Stoney Creek,ON,L8J3W2
5315511,35 Upper Centennial Parkway,,Stoney Creek,ON,L8J3W2
2701551,325 Winterberry Drive,Unit 105,Stoney Creek,ON,L8J0B6
5300569,15 Mountain Avenue South,,Stoney Creek,ON,L8G2V6
1039876,325 Winterberry Drive,Heritage Green Professional Arts,Stoney Creek,ON,L8J0B6
1112352,6212 Main Street,Suite 102,Stouffville,ON,L4A2S5
5185553,6212 Main Street,Suite 102,Stouffville,ON,L4A2S5
2443052,771 Erie Street,Unit C,Stratford,ON,N4Z1A1
5426707,444 Douro Street,Suite 102,Stratford,ON,N5A3S9
2238124,1351 Martindale Road,,Sudbury,ON,P3E4J7
9866432,2009 Long Lake Road,Suite 304,Sudbury,ON,P3E6C3
1355103,2009 Long Lake Road,Suite 404,Sudbury,ON,P3E6C3
5655977,2037 Long Lake Road,Unit 20,Sudbury,ON,P3E6J9
8276421,2009 Long Lake Road,Suite 103,Sudbury,ON,P3E6C3
8041794,65 Larch Street,Suite 103,Sudbury,ON,P3E1B8
477482,1122 Lasalle Boulevard,,Sudbury,ON,P3A1Y4
5642199,1596 Regent Street,,Sudbury,ON,P3E3Z6
2842285,2140 Regent Street South,"Suites 3, 4 and 5",Sudbury,ON,P3E5S8
8026714,2009 Long Lake Road,Suite 103,Sudbury,ON,P3E6C3
8023712,1122 LaSalle Boulevard,,Sudbury,ON,P3A1Y4
9567992,13300 Tecumseh Road East,Suite 330,Tecumseh,ON,N8N4R8
4751893,13278 Tecumseh Road East,Suite 106,Tecumseh,ON,N8N3T6
5101514,11811 Tecumseh Road East,Suite 112,Tecumseh,ON,N8N4M7
5906449,1695 Manning Road,Unit 120,Tecumseh,ON,N8N2L9
3011914,31 Disera Drive,Suite 200,Thornhill,ON,L4J0A7
7398810,30 Disera Drive,Suite 200,Thornhill,ON,L4J0A7
1477780,12 Morgan Avenue,Suite 100,Thornhill,ON,L3T1R1
2105556,398 Steeles Avenue West,Units 11 - 14,Thornhill,ON,L4J6X3
2301413,7191 Yonge Street,Unit 1111,Thornhill,ON,L3T0C4
8197940,7099 Yonge Street,Suite 205,Thornhill,ON,L3T0H1
9473928,7330 Yonge Street,Suite 206,Thornhill,ON,L4J7Y7
4429580,7241 Bathurst Street,Suite 12,Thornhill,ON,L4J3W1
6022923,8054 Yonge Street,,Thornhill,ON,L4J1W3
5322447,3460 Schmon Parkway,,Thorold,ON,L2V4Y6
8076918,194 North Court Street,,Thunder Bay,ON,P7A4V7
4611989,820 Red River Road,Suite 1,Thunder Bay,ON,P7B1K2
1376959,230 Cumberland Street North,,Thunder Bay,ON,P7A4N3
2658790,63 Algoma Street North,Suite 210,Thunder Bay,ON,P7A4Z6
8099989,530 - 10th Avenue,,Thunder Bay,ON,P7B2R2
5038832,63 Algoma Street North,Suite 150,Thunder Bay,ON,P7A4Z6
5890599,1265 Arthur Street East,Suite 407,Thunder Bay,ON,P7E6E7
3076125,206 Fifth Avenue,,Timmins,ON,P4N5L3
609526,707 Ross Avenue East,Suite 104,Timmins,ON,P4N8R1
3763195,658 Danforth Avenue,Suite 101,Toronto,ON,M4J5B9
682091,658 Danforth Avenue,Suite 101,Toronto,ON,M4J5B9
6506810,123 Edward Street,Suite 210,Toronto,ON,M5G1E2
5391410,123 Edward Street,Suite 600,Toronto,ON,M5G1E2
5221255,1466 Bathurst Street,Basement,Toronto,ON,M5R3S3
5820599,807 Broadview Avenue,,Toronto,ON,M4K2P8
4682097,807 Broadview Avenue,,Toronto,ON,M4K2P8
9641007,800 Bathurst Street,Suite 304,Toronto,ON,M5R3M8
9847123,800 Bathurst Street,Suite 302,Toronto,ON,M5R3M8
5326698,790 Bay Street,Suite 312,Toronto,ON,M5G1N8
6872794,655 Bay Street,18th Floor,Toronto,ON,M5G2K4
1932458,586 Eglinton Avenue East,Suite 308,Toronto,ON,M4P1P2
50100,1670 Dufferin Street,Unit B-1,Toronto,ON,M6H3M2
7057621,716 Bloor Street West,,Toronto,ON,M6G1L4
847286,40 Prince Arthur Avenue,,Toronto,ON,M5R1A9
1300104,302 Gerrard Street East,,Toronto,ON,M5A2G7
2911175,658 Danforth Avenue,Suite 101,Toronto,ON,M4J5B9
176794,658 Danforth Avenue,Suite 101,Toronto,ON,M4J5B9
9100468,295 College Street,Suite 301,Toronto,ON,M5T1S2
3876784,101 Westmore Drive,Suite 203,Toronto,ON,M9V3Y6
9682732,1678 Bloor Street West,Suite 301,Toronto,ON,M6P1A9
3150721,1980 St. Clair Avenue West,Unit 207,Toronto,ON,M6N0A3
3660970,1849 Yonge Street,Suite 705,Toronto,ON,M4S1Y2
7017229,474 College Street,Suite B4,Toronto,ON,M6G1A4
5061463,1577 Danforth Avenue,Unit 7,Toronto,ON,M4C1H7
3476695,790 Bay Street,Suite 1100,Toronto,ON,M5G1N8
2658325,2494 Danforth Avenue,Unit 3A,Toronto,ON,M4C1K9
793127,855 Broadview Avenue,Basement and Unit 305,Toronto,ON,M4K3Z1
277601,491 Eglinton Avenue West,2nd Floor,Toronto,ON,M5N1A8
9795093,245 Danforth Avenue,Suite 200,Toronto,ON,M4K1N2
7613794,280 Spadina Avenue,Suite 306,Toronto,ON,M5T3A5
177489,1805 Queen Street East,Units 1 - 3,Toronto,ON,M4L3Y3
5285202,491 Eglinton Avenue West,Suite 302,Toronto,ON,M5N1A8
1064419,160 Bloor Street East,Suite 1500,Toronto,ON,M4W1B9
4027423,720 Spadina Avenue,Suite 200,Toronto,ON,M5S2T9
1236624,340 College Street,Suite 315,Toronto,ON,M5T3A9
2320846,236 Avenue Road,,Toronto,ON,M5R2J4
1138903,600 Sherbourne Street,Suite 402,Toronto,ON,M4X1W4
5401822,340 College Street,Suite 410,Toronto,ON,M5T3A9
8897391,340 College Street,Suite 501,Toronto,ON,M5T3A9
2968147,801 Eglinton Avenue West,Suite 301,Toronto,ON,M5N1E3
5701040,150 York Street,Suite 1500,Toronto,ON,M5H3S5
5443511,1881 Yonge Street,Suite 501,Toronto,ON,M4S3C4
1115291,27 Queen Street East,Suite 101,Toronto,ON,M5C2M6
3809136,790 Bay Street,Suite 935,Toronto,ON,M5G1N8
9093617,150 Eglinton Avenue East,5th Floor,Toronto,ON,M4P1E8
6446092,1849 Yonge Street,"Lower Level, Room 6",Toronto,ON,M4S1Y2
465477,1849 Yonge Street,Suite 218,Toronto,ON,M4S1Y2
1305104,150 Eglinton Avenue East,Suite 301,Toronto,ON,M4P1E8
5205302,27 Roncesvalles Avenue,Suite 105,Toronto,ON,M6R3B2
8952609,1366 Yonge Street,Suite 101,Toronto,ON,M4T3A7
2027798,2075 Bayview Avenue,"Suite M1, Room 202C",Toronto,ON,M4N3M5
7700617,757 Pape Avenue,,Toronto,ON,M4K3T1
7993519,2360 Yonge Street,2nd Floor,Toronto,ON,M4P0E2
2343567,586 Eglinton Avenue East,Suite 104,Toronto,ON,M4P1P2
1275988,181 University Avenue,Suite 1605,Toronto,ON,M5H3M7
762129,1849 Yonge Street,LF20,Toronto,ON,M4S1Y2
632295,5 Junction Road,,Toronto,ON,M6N1B5
5049912,600 Sherbourne Street,Suites B1/B7 and B6,Toronto,ON,M4X1W4
4195960,1835 Yonge Street,Suite 303,Toronto,ON,M4S1X8
4179104,790 Bay Street,Suite 800,Toronto,ON,M5G1N8
5401322,1223 St. Clair Avenue West,Suite 102,Toronto,ON,M6E1B5
7322335,40 Prince Arthur Avenue,,Toronto,ON,M5R1A9
4412518,340 College Street,Suite 602,Toronto,ON,M5T3A9
8248436,727 Hillsdale Avenue East,,Toronto,ON,M4S1V4
3300103,399 Bathurst Street,"Room 7-451, New East Wing",Toronto,ON,M5T2S8
8155300,829 St. Clair Avenue West,,Toronto,ON,M6C1C2
2283351,150 York Street,Suite 910,Toronto,ON,M5H3S5
5041449,45 Overlea Boulevard,Suite B6,Toronto,ON,M4H1C3
8413510,45 Overlea Boulevard,Suite B6,Toronto,ON,M4H1C3
3092988,525 Dundas Street East,,Toronto,ON,M5A2B6
3200843,1033 Bay Street,Unit 311,Toronto,ON,M5S3A5
8043924,123 Edward Street,Suite 1011,Toronto,ON,M5G1E2
2815050,1835 Yonge Street,Unit 303,Toronto,ON,M4S1X8
7234709,586 Eglinton Avenue East,Suite 507,Toronto,ON,M4P1P2
9472518,180 Bloor Street West,Suite 204,Toronto,ON,M5S2V6
4093960,1881 Yonge Street,Suite 402,Toronto,ON,M4S3C4
1215393,217 Davenport Road,,Toronto,ON,M5R1J3
1851890,313 Eglinton Avenue West,,Toronto,ON,M5N1A1
7641890,160 Bloor Street East,15th Floor,Toronto,ON,M4W1B9
5324467,655 Bay Street,11th Floor,Toronto,ON,M5G2K4
589576,130 King Street West,Concourse Level,Toronto,ON,M5X2A2
2195305,11 King Street West,"Concourse Level, Unit C-100",Toronto,ON,M5H4C7
2355930,790 Bay Street,Suite 716,Toronto,ON,M5G1N8
5929305,2425 Bloor Street West,Unit 103,Toronto,ON,M6S4W4
5881268,2425 Bloor Street West,Suite 103,Toronto,ON,M6S4W4
6597961,2238 Dundas Street West,Suite 308,Toronto,ON,M6R3A9
5356493,2401 Yonge Street,LL11,Toronto,ON,M4P3H1
8626306,227 Victoria Street,Lower Level 2,Toronto,ON,M5B1T8
8849984,120 Mill Street East,Unit 3,Tottenham,ON,L0G1W0
4993143,1 Frankford Crescent,Suite 2,Trenton,ON,K8V6H8
7076413,7 Metcalfe Street,Unit 2,Trenton,ON,K8V6H3
4923529,7 Metcalfe Street,Unit 2,Trenton,ON,K8V6H3
1309439,29 Toronto Street South,,Uxbridge,ON,L9P1V9
8833275,2 Elgin Park Drive,,Uxbridge,ON,L9P0B1
2200847,3865 Major Mackenzie Drive,Unit 106,Vaughan,ON,L4H4P4
3407890,955 Major Mackenzie Drive,Suite 102,Vaughan,ON,L6A4P9
5981346,14 Ramblewood Drive,,Wasaga Beach,ON,L9Z0C4
9479040,245 Dundas Street East,Units 7 and 8,Waterdown,ON,L0R2H6
1063914,50 Albert Street,,Waterloo,ON,N2L3S2
2343444,435 The Boardwalk,Suite 303,Waterloo,ON,N2T0C2
5179105,435 The Boardwalk,Suite 202,Waterloo,ON,N2T0C2
5072418,65 University Avenue East,,Waterloo,ON,N2J2V9
2838225,435 The Boardwalk,Unit 503,Waterloo,ON,N2T0C2
7641842,430 The Boardwalk,Suite 108,Waterloo,ON,N2T0C1
4092520,430 The Boardwalk,,Waterloo,ON,N2T0C1
499537,430 The Boardwalk,Suite 108,Waterloo,ON,N2L0C1
4023918,65 University Avenue East,Unit 17,Waterloo,ON,N2J2V9
2640846,380 King Street North,,Waterloo,ON,N2J2Z3
99490,555 Prince Charles Drive North,Suite 114,Welland,ON,L3C6B5
210879,198 Des Newman Boulevard,,Whitby,ON,L1P0P9
5456817,605 Brock Street North,Units 1 and 2,Whitby,ON,L1N8R2
8446982,1615 Dundas Street East,,Whitby,ON,L1N2L1
1454827,1615 Dundas Street East,"Unit 17X, The Whitby Mall",Whitby,ON,L1N2L1
2391568,220 Dundas Street West,Suite 104,Whitby,ON,L1N8M7
5324144,5959 Anderson Street,Suite L6,Whitby,ON,L1M2E9
6479141,198 Des Newman Boulevard,,Whitby,ON,L1P0P9
8566457,3020 Brock Street North,,Whitby,ON,L1R3J7
1739204,320 Byron Street South,,Whitby,ON,L1N4P8
2138487,200 Brock Street North,,Whitby,ON,L1N4H5
3473798,3800 Brock Street North,,Whitby,ON,L1R3A5
3810104,198 Des Newman Boulevard,,Whitby,ON,L1P0P9
68591,220 Dundas Street West,Suite 402,Whitby,ON,L1N8M7
9631550,3050 Garden Street,Unit 109,Whitby,ON,L1R2G7
4360874,2464 Howard Avenue,Suite 204,Windsor,ON,N8X3V6
3214899,1720 Howard Avenue,"400 Building, Suite 150",Windsor,ON,N8X5A6
6345894,410 Giles Boulevard East,,Windsor,ON,N9A4C6
7981219,2930 Dominion Boulevard,,Windsor,ON,N9E2M8
9721188,7875 Riverside Drive East,Unit 103,Windsor,ON,N8S1E1
9863593,700 Tecumseh Road East,Suite 102,Windsor,ON,N8X4T2
5701240,2464 Howard Avenue,Suite 102,Windsor,ON,N8X3V6
780453,3850 Dougall Avenue,Unit 20,Windsor,ON,N9G1X2
9912394,2825 Lauzon Parkway,Unit 213,Windsor,ON,N8T3H5
6200526,2464 Howard Avenue,Suite 102,Windsor,ON,N8X3V6
991166,700 Tecumseh Road East,Suite 102,Windsor,ON,N8X4T2
604290,250 Tecumseh Road East,"Building 100, Unit 120",Windsor,ON,N8X2R3
3461204,2421 Dougall Avenue,,Windsor,ON,N8X1T3
901510,1608 Tecumseh Road West,,Windsor,ON,N9B1T8
1154419,1568 Ouellette Avenue,,Windsor,ON,N8X1K7
3885239,1275 Walker Road,Suite 4,Windsor,ON,N8Y4X9
3852223,880 North Service Road,Building 300,Windsor,ON,N8X3J5
5041844,2475 McDougall Street,Suite 160,Windsor,ON,N8X3N9
2108575,2224 Walker Road,Suite 150,Windsor,ON,N8W5L7
2293188,2425 Tecumseh Road East,Suite 108,Windsor,ON,N8W1E6
4413503,2462 Howard Avenue,Unit 136,Windsor,ON,N8X3V6
3319513,10700 Tecumseh Road East,,Windsor,ON,N8R1A8
4614799,55 Edinborough Street,Unit 100,Windsor,ON,N8X3C3
1356617,3555 North Service Road East,Suite 200,Windsor,ON,N8W5R7
3149489,8333 Weston Road,Suite B04,Woodbridge,ON,L4L8E2
55287,8333 Weston Road,Suite B04,Woodbridge,ON,L4L8E2
6905969,4600 Highway 7 West,Suite LL30,Woodbridge,ON,L4L4Y7
1421632,4600 Highway 7,Suite 200,Woodbridge,ON,L4L4Y7
4781632,8077 Islington Avenue,Suite 110,Woodbridge,ON,L4L7X7
9361147,8333 Weston Road,Suite B04,Woodbridge,ON,L4L8E2
4173982,200 Windflower Gate,Unit AA5,Woodbridge,ON,L4L9L3
5168762,7766 Martin Grove Road,,Woodbridge,ON,L4L2C7
8277482,200 Windflower Gate,Unit AA5,Woodbridge,ON,L4L9L3
1072608,200 Windflower Gate,Unit AA5,Woodbridge,ON,L4L9L3
5465096,6175 Highway 7,Units 19 and 20,Woodbridge,ON,L4H0P6
3616430,437 Norwich Avenue,Unit 3,Woodstock,ON,N4S3W4
2603076,510 Ingersoll Avenue,Unit 207,Woodstock,ON,N4S4X9
715399,826 King Street North,Unit 18,Woolwich Township,ON,N2J4G8
72798,2010 Eglinton Avenue West,Suite 100,York,ON,M6E2K3
7784189,2045 Dufferin Street,Suite B3,York,ON,M6E3R4
5058744,2700 Dufferin Street,Unit 56,York,ON,M6B4J3
4461442,2050 Weston Road,Unit 108,York,ON,M9N1X4
7423510,2010 Eglinton Avenue West,Suite 100,York,ON,M6E2K3
5846720,2010 Eglinton Avenue West,Suite 100,York,ON,M6E2K3
2045846,2010 Eglinton Avenue West,Suite 100,York,ON,M6E2K3
1462198,911A Jane Street,,York,ON,M6N4C6
